[{"OBJECT_NAME":"BANDWAGON-2 OBJECT D","OBJECT_ID":"2024-247D","EPOCH":"2026-03-09T12:32:33.670752","MEAN_MOTION":15.29076102,"ECCENTRICITY":0.00034883,"INCLINATION":44.9954,"RA_OF_ASC_NODE":115.671,"ARG_OF_PERICENTER":351.1453,"MEAN_ANOMALY":8.9368,"EPHEMERIS_TYPE":0,"CLASSIFICATION_TYPE":"U","NORAD_CAT_ID":62380,"ELEMENT_SET_NO":999,"REV_AT_EPOCH":6773,"BSTAR":0.00040119131,"MEAN_MOTION_DOT":0.00011259,"MEAN_MOTION_DDOT":0},{"OBJECT_NAME":"STARLINK-34827","OBJECT_ID":"2025-161Z","EPOCH":"2026-03-09T21:10:48.969408","MEAN_MOTION":15.30204668,"ECCENTRICITY":8.557e-5,"INCLINATION":53.1603,"RA_OF_ASC_NODE":292.9958,"ARG_OF_PERICENTER":129.5295,"MEAN_ANOMALY":230.5781,"EPHEMERIS_TYPE":0,"CLASSIFICATION_TYPE":"U","NORAD_CAT_ID":65038,"ELEMENT_SET_NO":999,"REV_AT_EPOCH":3426,"BSTAR":0.0008725664,"MEAN_MOTION_DOT":0.00025576,"MEAN_MOTION_DDOT":0}]
